IRIDIUM 921             
1 24873U 97034E   24135.94957544  .00041933  00000+0  11513-2 0  9991
2 24873  86.3794 304.5516 0004133  43.2236 316.9340 15.37064851470353
IRIDIUM 26              
1 24903U 97043A   24135.89030989  .00001414  00000+0  47697-3 0  9997
2 24903  86.3928 277.7288 0002045  87.1096 273.0335 14.36345844399555
IRIDIUM 22              
1 24907U 97043E   24135.92022360  .00001372  00000+0  47295-3 0  9996
2 24907  86.3929 280.9290 0002153  92.7309 267.4134 14.35235945399630
DUMMY MASS 1            
1 24925U 97048A   24136.53838929  .00001165  00000+0  12957-3 0  9992
2 24925  86.3317 319.0848 0009015 109.1892 251.0308 14.86191239446298
DUMMY MASS 2            
1 24926U 97048B   24136.03097366  .00001250  00000+0  14003-3 0  9999
2 24926  86.3319 320.8570 0009595 119.7934 240.4246 14.85948726446002
IRIDIUM 29              
1 24944U 97051A   24136.21225308  .00001216  00000+0  41469-3 0  9990
2 24944  86.3921 310.7381 0002375  92.8832 267.2636 14.35685532396378
IRIDIUM 33              
1 24946U 97051C   24135.92906148  .00000875  00000+0  30464-3 0  9990
2 24946  86.3836 310.1102 0006092 308.1590  51.9056 14.34348267395647
IRIDIUM 28              
1 24948U 97051E   24135.88975488  .00001299  00000+0  43504-3 0  9990
2 24948  86.3926 308.6156 0001856  81.1982 278.9425 14.36636208396645
